LEMUR-2-STARLIGHT       
1 66783U 25276DY  26197.73741352  .00003808  00000+0  31528-3 0  9999
2 66783  97.5234 267.3665 0014757  42.7517 317.4852 14.99367069 34626
LEMUR-2-TARTIFLETTE     
1 66784U 25276DZ  26197.66909338  .00003440  00000+0  28548-3 0  9992
2 66784  97.5233 267.3085 0013921  51.3073 308.9394 14.99350190 34619
LEMUR-2-VUKASIN         
1 66785U 25276EA  26197.43821737  .00002310  00000+0  18768-3 0  9992
2 66785  97.5221 267.4465 0002856  51.1957 308.9522 15.00552455 34539
LEMUR-2-HOTSPUR-TOM     
1 66786U 25276EB  26197.66359253  .00002931  00000+0  24457-3 0  9998
2 66786  97.5215 267.2768 0013734  42.8928 317.3364 14.99250046 34546
LEMUR-2-MYRA            
1 66787U 25276EC  26197.73680809  .00003277  00000+0  26311-3 0  9996
2 66787  97.5220 267.6547 0018677  49.6580 310.6272 15.00599630 34645
LEMUR-2 FIKRETDENGIZ    
1 67363U 26004A   26197.57941942  .00001656  00000+0  18387-3 0  9990
2 67363  97.8027 195.6909 0010108  51.8777 308.3350 14.88522289 27655
TWILIGHT-1 OBJECT B     
1 67364U 26004B   26197.48272794  .00000869  00000+0  10103-3 0  9996
2 67364  97.8076 195.5957 0009653  42.1314 318.0643 14.87795828 27647
LEMUR-2-MARIO-SOUSA     
1 67365U 26004C   26197.55908666  .00002215  00000+0  24272-3 0  9998
2 67365  97.8000 195.6658 0009750  53.4528 306.7585 14.88734181 27661
LEMUR-2-SONNENBLUME     
1 67367U 26004E   26197.56219168  .00001336  00000+0  14980-3 0  9991
2 67367  97.8001 195.6409 0009316  54.4556 305.7529 14.88457039 27669
LEMUR-2-WOBLER          
1 67368U 26004F   26197.48404190  .00002098  00000+0  23039-3 0  9995
2 67368  97.8050 195.7164 0009401  46.4263 313.7733 14.88703298 27650
LEMUR-2-GRAM-E-SUE      
1 67370U 26004H   26197.54348649  .00001211  00000+0  13580-3 0  9997
2 67370  97.7987 195.6391 0008517  57.3306 302.8731 14.88592787 27665
LEMUR-2-KATIE           
1 67387U 26004AA  26197.56609001  .00002199  00000+0  23230-3 0  9998
2 67387  97.8044 196.2176 0003383  30.9861 329.1556 14.90258470 27685
LEMUR-2-HCS-BAZUS       
1 67388U 26004AB  26197.56443656  .00001505  00000+0  16075-3 0  9990
2 67388  97.8038 196.1937 0002860  30.9753 329.1633 14.90266628 27682
